STARLINK-37701          
1 69306U 26119L   26168.16668980 -.02634212  00000+0 -26474-1 0  9995
2 69306  97.2839 194.0027 0001776  68.2997  42.5276 15.68927475  4047
STARLINK-37732          
1 69307U 26119M   26168.16668980 -.02645555  00000+0 -20507-1 0  9999
2 69307  97.2837 194.0216 0001831  77.3914  75.8201 15.75039472  4044
STARLINK-37689          
1 69308U 26119N   26168.16668980 -.00030496  00000+0 -56079-3 0  9995
2 69308  97.2884 193.8356 0000793  44.6341  33.7273 15.49212353  4040
STARLINK-37619          
1 69309U 26119P   26168.16668980 -.02627387  00000+0 -22548-1 0  9991
2 69309  97.2838 194.0210 0001855  73.2021  79.2279 15.72665036  4042
STARLINK-37794          
1 69310U 26119Q   26168.16668980 -.02364717  00000+0 -34198-1 0  9992
2 69310  97.2838 193.9752 0001429  67.3936 325.8732 15.59376803  4049
STARLINK-37795          
1 69311U 26119R   26168.16668980 -.00040680  00000+0 -74983-3 0  9999
2 69311  97.2882 193.8469 0000868  57.7093  46.0973 15.49202785  4041
STARLINK-37790          
1 69312U 26119S   26168.16668980 -.02614713  00000+0 -28296-1 0  9990
2 69312  97.2841 194.0103 0001767  79.9141  48.0473 15.67099420  4041
STARLINK-37676          
1 69313U 26119T   26168.16668980 -.02558689  00000+0 -19367-1 0  9999
2 69313  97.2837 194.0410 0001896  83.2249 115.4333 15.76078109  4043
STARLINK-37617          
1 69314U 26119U   26168.16668980 -.01043656  00000+0 -11591-1 0  9993
2 69314  97.2843 194.0121 0001499  78.8780  52.5933 15.65586777  4049
STARLINK-37627          
1 69315U 26119V   26168.16668980 -.02627263  00000+0 -28136-1 0  9990
2 69315  97.2845 194.0211 0001923  75.9756  77.1319 15.67372551  4041
STARLINK-37738          
1 69316U 26119W   26168.16668980 -.02546669  00000+0 -28645-1 0  9996
2 69316  97.2844 194.0105 0001654  65.6362  59.8300 15.66048919  4047
STARLINK-37799          
1 69317U 26119X   26168.16668980 -.00875464  00000+0 -58665-2 0  9999
2 69317  97.2837 194.0440 0001086  87.3315 117.1605 15.77506674  3998
STARLINK-37802          
1 69318U 26119Y   26168.16668980 -.02625149  00000+0 -22004-1 0  9992
2 69318  97.2843 194.0404 0001677  73.8589 123.6209 15.73213315  4047
STARLINK-37803          
1 69319U 26119Z   26168.16668980 -.00746420  00000+0 -11057-1 0  9993
2 69319  97.2844 193.9737 0001107  66.0012 325.9798 15.57715575  3999
GUOWANG TEST OBJECT A   
1 69320U 26120A   26158.46264223  .00009002  00000+0  24096-3 0  9996
2 69320  54.9967  71.5399 0009599 294.3963  65.6063 15.38803685  1198
GUOWANG TEST OBJECT B   
1 69321U 26120B   26168.00875735  .00008236  00000+0  22202-3 0  9999
2 69321  54.9984  28.5393 0010110 330.2377  29.8075 15.38703032  2667
GUOWANG TEST OBJECT C   
1 69322U 26120C   26158.91389784  .00016153  00000+0  41736-3 0  9993
2 69322  54.9968  69.4792 0009850 309.3319  50.6835 15.39284097  1266
GUOWANG TEST OBJECT D   
1 69323U 26120D   26167.35516612  .00001852  00000+0  57263-4 0  9997
2 69323  54.9990  31.4391 0011112 342.7076  17.3573 15.39015221  2565
QIANFAN-163             
1 69325U 26121A   26168.07859748  .00000011  00000+0 -12216-5 0  9997
2 69325  89.0146 300.5264 0020079 189.2688 170.8101 13.59758160  2145
QIANFAN-164             
1 69326U 26121B   26162.41240743  .00000112  00000+0  13228-3 0  9992
2 69326  89.0157 301.0998 0019383 205.3125 154.7084 13.60355109  1373
SZ-22 MODULE            
1 69328U 25272C   26167.85575198  .00018201  00000+0  22051-3 0  9990
2 69328  41.4806 324.1231 0006297  83.9376 276.2180 15.60203853  3270
STARLINK-37733          
1 69329U 26122A   26168.16348334  .00134330  00000+0  68983-3 0  9997
2 69329  97.2826 197.6034 0000364  92.7970 267.3340 15.80862357  2150
STARLINK-37772          
1 69330U 26122B   26168.15823750  .00172040  00000+0  87910-3 0  9999
2 69330  97.2825 197.6105 0000767  86.6883 273.4473 15.80871146  2153
STARLINK-37768          
1 69331U 26122C   26168.16668980 -.02456116  00000+0 -19165-1 0  9991
2 69331  97.2836 197.6182 0001339  52.4162 354.2632 15.75228053  3296
STARLINK-37833          
1 69332U 26122D   26168.15608948  .00108636  00000+0  56022-3 0  9991
2 69332  97.2828 197.6136 0000860  19.9724 340.1578 15.80841383  2157
STARLINK-37818          
1 69333U 26122E   26168.15802727 -.00081491  00000+0 -42985-3 0  9997
2 69333  97.2822 197.6112 0000631  58.6073 301.5256 15.80757514  2155
STARLINK-37868          
1 69334U 26122F   26168.16668980 -.00016122  00000+0 -83554-4 0  9997
2 69334  97.2834 197.6393 0000828  74.7688  16.8339 15.80825087  3351
STARLINK-37877          
1 69335U 26122G   26168.16668980 -.02587950  00000+0 -22579-1 0  9999
2 69335  97.2837 197.6273 0001577  63.3663   4.2146 15.72229072  3351
STARLINK-37791          
1 69336U 26122H   26168.16668980 -.02554355  00000+0 -15881-1 0  9991
2 69336  97.2829 197.6430 0001236  75.1610  25.9062 15.80426422  3357
