OBJECT_NAME,OBJECT_ID,EPOCH,MEAN_MOTION,ECCENTRICITY,INCLINATION,RA_OF_ASC_NODE,ARG_OF_PERICENTER,MEAN_ANOMALY,EPHEMERIS_TYPE,CLASSIFICATION_TYPE,NORAD_CAT_ID,ELEMENT_SET_NO,REV_AT_EPOCH,BSTAR,MEAN_MOTION_DOT,MEAN_MOTION_DDOT
STARLINK-37701,2026-119L,2026-06-17T04:00:01.998720,15.68927475,.0001776,97.2839,194.0027,68.2997,42.5276,0,U,69306,999,404,-.26474E-1,-.2634212E-1,0
STARLINK-37732,2026-119M,2026-06-17T04:00:01.998720,15.75039472,.0001831,97.2837,194.0216,77.3914,75.8201,0,U,69307,999,404,-.20507E-1,-.2645555E-1,0
STARLINK-37689,2026-119N,2026-06-17T04:00:01.998720,15.49212353,.0000793,97.2884,193.8356,44.6341,33.7273,0,U,69308,999,404,-.56079E-3,-.30496E-3,0
STARLINK-37619,2026-119P,2026-06-17T04:00:01.998720,15.72665036,.0001855,97.2838,194.0210,73.2021,79.2279,0,U,69309,999,404,-.22548E-1,-.2627387E-1,0
STARLINK-37794,2026-119Q,2026-06-17T04:00:01.998720,15.59376803,.0001429,97.2838,193.9752,67.3936,325.8732,0,U,69310,999,404,-.34198E-1,-.2364717E-1,0
STARLINK-37795,2026-119R,2026-06-17T04:00:01.998720,15.49202785,.0000868,97.2882,193.8469,57.7093,46.0973,0,U,69311,999,404,-.74983E-3,-.4068E-3,0
STARLINK-37790,2026-119S,2026-06-17T04:00:01.998720,15.67099420,.0001767,97.2841,194.0103,79.9141,48.0473,0,U,69312,999,404,-.28296E-1,-.2614713E-1,0
STARLINK-37676,2026-119T,2026-06-17T04:00:01.998720,15.76078109,.0001896,97.2837,194.0410,83.2249,115.4333,0,U,69313,999,404,-.19367E-1,-.2558689E-1,0
STARLINK-37617,2026-119U,2026-06-17T04:00:01.998720,15.65586777,.0001499,97.2843,194.0121,78.8780,52.5933,0,U,69314,999,404,-.11591E-1,-.1043656E-1,0
STARLINK-37627,2026-119V,2026-06-17T04:00:01.998720,15.67372551,.0001923,97.2845,194.0211,75.9756,77.1319,0,U,69315,999,404,-.28136E-1,-.2627263E-1,0
STARLINK-37738,2026-119W,2026-06-17T04:00:01.998720,15.66048919,.0001654,97.2844,194.0105,65.6362,59.8300,0,U,69316,999,404,-.28645E-1,-.2546669E-1,0
STARLINK-37799,2026-119X,2026-06-17T04:00:01.998720,15.77506674,.0001086,97.2837,194.0440,87.3315,117.1605,0,U,69317,999,399,-.58665E-2,-.875464E-2,0
STARLINK-37802,2026-119Y,2026-06-17T04:00:01.998720,15.73213315,.0001677,97.2843,194.0404,73.8589,123.6209,0,U,69318,999,404,-.22004E-1,-.2625149E-1,0
STARLINK-37803,2026-119Z,2026-06-17T04:00:01.998720,15.57715575,.0001107,97.2844,193.9737,66.0012,325.9798,0,U,69319,999,399,-.11057E-1,-.74642E-2,0
GUOWANG TEST OBJECT A,2026-120A,2026-06-07T11:06:12.288672,15.38803685,.00095994,54.9967,71.5399,294.3963,65.6063,0,U,69320,999,119,.24095813E-3,.9002E-4,0
GUOWANG TEST OBJECT B,2026-120B,2026-06-17T00:12:36.635040,15.38703032,.001011,54.9984,28.5393,330.2377,29.8075,0,U,69321,999,266,.22202E-3,.8236E-4,0
GUOWANG TEST OBJECT C,2026-120C,2026-06-07T21:56:00.773376,15.39284097,.00098504,54.9968,69.4792,309.3319,50.6835,0,U,69322,999,126,.41735581E-3,.16153E-3,0
GUOWANG TEST OBJECT D,2026-120D,2026-06-16T08:31:26.352768,15.39015221,.00111128,54.9990,31.4391,342.7076,17.3573,0,U,69323,999,256,.57263237E-4,.1852E-4,0
QIANFAN-163,2026-121A,2026-06-17T01:53:10.822272,13.59758160,.0020079,89.0146,300.5264,189.2688,170.8101,0,U,69325,999,214,-.12216E-5,.11E-6,0
QIANFAN-164,2026-121B,2026-06-11T09:53:52.001952,13.60355109,.0019383,89.0157,301.0998,205.3125,154.7084,0,U,69326,999,137,.13228E-3,.112E-5,0
SZ-22 MODULE,2025-272C,2026-06-16T20:32:16.971072,15.60203853,.0006297,41.4806,324.1231,83.9376,276.2180,0,U,69328,999,327,.22051E-3,.18201E-3,0
STARLINK-37733,2026-122A,2026-06-17T03:55:24.960576,15.80862357,.0000364,97.2826,197.6034,92.7970,267.3340,0,U,69329,999,215,.68983E-3,.13433E-2,0
STARLINK-37772,2026-122B,2026-06-17T03:47:51.720000,15.80871146,.0000767,97.2825,197.6105,86.6883,273.4473,0,U,69330,999,215,.8791E-3,.17204E-2,0
STARLINK-37768,2026-122C,2026-06-17T04:00:01.998720,15.75228053,.0001339,97.2836,197.6182,52.4162,354.2632,0,U,69331,999,329,-.19165E-1,-.2456116E-1,0
STARLINK-37833,2026-122D,2026-06-17T03:44:46.131072,15.80841383,.000086,97.2828,197.6136,19.9724,340.1578,0,U,69332,999,215,.56022E-3,.108636E-2,0
STARLINK-37818,2026-122E,2026-06-17T03:47:33.556128,15.80757514,.0000631,97.2822,197.6112,58.6073,301.5256,0,U,69333,999,215,-.42985E-3,-.81491E-3,0
STARLINK-37868,2026-122F,2026-06-17T04:00:01.998720,15.80825087,.0000828,97.2834,197.6393,74.7688,16.8339,0,U,69334,999,335,-.83554E-4,-.16122E-3,0
STARLINK-37877,2026-122G,2026-06-17T04:00:01.998720,15.72229072,.0001577,97.2837,197.6273,63.3663,4.2146,0,U,69335,999,335,-.22579E-1,-.258795E-1,0
STARLINK-37791,2026-122H,2026-06-17T04:00:01.998720,15.80426422,.0001236,97.2829,197.6430,75.1610,25.9062,0,U,69336,999,335,-.15881E-1,-.2554355E-1,0
